{"type": "FeatureCollection", "features": [ {"type": "Feature", "properties": {"norad_id": 33492, "name": "GOSAT (IBUKI)", "group": "resource", "lat": -81.44020525127364, "lon": -141.07246168524688, "alt_km": 676.9455578774005, "timestamp": "2025-12-27T03:58:43.834819+00:00", "meta": {"OBJECT_NAME": "GOSAT (IBUKI)", "OBJECT_ID": "2009-002A", "EPOCH": "2025-12-26T07:07:43.620960", "MEAN_MOTION": 14.67550857, "ECCENTRICITY": 0.0001037, "INCLINATION": 98.0771, "RA_OF_ASC_NODE": 108.712, "ARG_OF_PERICENTER": 105.7066, "MEAN_ANOMALY": 254.4253, "EPHEMERIS_TYPE": 0, "CLASSIFICATION_TYPE": "U", "NORAD_CAT_ID": 33492, "ELEMENT_SET_NO": 999, "REV_AT_EPOCH": 90610, "BSTAR": 0.00017142, "MEAN_MOTION_DOT": 9.24e-06, "MEAN_MOTION_DDOT": 0}, "tle": {"line1": "1 33492U 09002A   25360.29703265  .00000924  00000+0  17142-3 0  9994", "line2": "2 33492  98.0771 108.7120 0001037 105.7066 254.4253 14.67550857906109"}}, "geometry": {"type": "Point", "coordinates": [-141.07246168524688, -81.44020525127364]}}, {"type": "Feature", "properties": {"norad_id": 35681, "name": "DEIMOS-1", "group": "resource", "lat": 9.066435562431199, "lon": 159.85872057052322, "alt_km": 645.8594034294174, "timestamp": "2025-12-27T03:58:43.834828+00:00", "meta": {"OBJECT_NAME": "DEIMOS-1", "OBJECT_ID": "2009-041A", "EPOCH": "2025-12-26T21:25:29.792352", "MEAN_MOTION": 14.74975615, "ECCENTRICITY": 0.0002409, "INCLINATION": 97.716, "RA_OF_ASC_NODE": 160.8381, "ARG_OF_PERICENTER": 58.2463, "MEAN_ANOMALY": 301.8981, "EPHEMERIS_TYPE": 0, "CLASSIFICATION_TYPE": "U", "NORAD_CAT_ID": 35681, "ELEMENT_SET_NO": 999, "REV_AT_EPOCH": 88148, "BSTAR": 0.0001878, "MEAN_MOTION_DOT": 1.215e-05, "MEAN_MOTION_DDOT": 0}, "tle": {"line1": "1 35681U 09041A   25360.89270593  .00001215  00000+0  18780-3 0  9991", "line2": "2 35681  97.7160 160.8381 0002409  58.2463 301.8981 14.74975615881483"}}, "geometry": {"type": "Point", "coordinates": [159.85872057052322, 9.066435562431199]}}, {"type": "Feature", "properties": {"norad_id": 35682, "name": "DUBAISAT-1", "group": "resource", "lat": -71.4038528297339, "lon": 156.27406866326186, "alt_km": 647.6533005938672, "timestamp": "2025-12-27T03:58:43.834838+00:00", "meta": {"OBJECT_NAME": "DUBAISAT-1", "OBJECT_ID": "2009-041B", "EPOCH": "2025-12-26T20:10:02.479008", "MEAN_MOTION": 14.74642822, "ECCENTRICITY": 0.0009251, "INCLINATION": 97.9799, "RA_OF_ASC_NODE": 131.3133, "ARG_OF_PERICENTER": 263.5938, "MEAN_ANOMALY": 96.4218, "EPHEMERIS_TYPE": 0, "CLASSIFICATION_TYPE": "U", "NORAD_CAT_ID": 35682, "ELEMENT_SET_NO": 999, "REV_AT_EPOCH": 87969, "BSTAR": 0.0002266, "MEAN_MOTION_DOT": 1.462e-05, "MEAN_MOTION_DDOT": 0}, "tle": {"line1": "1 35682U 09041B   25360.84030647  .00001462  00000+0  22660-3 0  9997", "line2": "2 35682  97.9799 131.3133 0009251 263.5938  96.4218 14.74642822879693"}}, "geometry": {"type": "Point", "coordinates": [156.27406866326186, -71.4038528297339]}}, {"type": "Feature", "properties": {"norad_id": 35931, "name": "OCEANSAT-2", "group": "resource", "lat": 4.8873888593375465, "lon": -178.98916211474918, "alt_km": 908.6235123294582, "timestamp": "2025-12-27T03:58:43.834848+00:00", "meta": {"OBJECT_NAME": "OCEANSAT-2", "OBJECT_ID": "2009-051A", "EPOCH": "2025-12-26T21:59:55.676832", "MEAN_MOTION": 13.99623096, "ECCENTRICITY": 0.001586, "INCLINATION": 98.2218, "RA_OF_ASC_NODE": 0.0786, "ARG_OF_PERICENTER": 7.7415, "MEAN_ANOMALY": 352.3994, "EPHEMERIS_TYPE": 0, "CLASSIFICATION_TYPE": "U", "NORAD_CAT_ID": 35931, "ELEMENT_SET_NO": 999, "REV_AT_EPOCH": 85523, "BSTAR": 5.0435e-05, "MEAN_MOTION_DOT": 3.6e-07, "MEAN_MOTION_DDOT": 0}, "tle": {"line1": "1 35931U 09051A   25360.91661663  .00000036  00000+0  50435-4 0  9999", "line2": "2 35931  98.2218   0.0786 0015860   7.7415 352.3994 13.99623096855234"}}, "geometry": {"type": "Point", "coordinates": [-178.98916211474918, 4.8873888593375465]}}, {"type": "Feature", "properties": {"norad_id": 35946, "name": "WORLDVIEW-2 (WV-2)", "group": "resource", "lat": 65.7399747984156, "lon": -88.62330175040515, "alt_km": 758.8949275442865, "timestamp": "2025-12-27T03:58:43.834858+00:00", "meta": {"OBJECT_NAME": "WORLDVIEW-2 (WV-2)", "OBJECT_ID": "2009-055A", "EPOCH": "2025-12-26T19:06:18.923040", "MEAN_MOTION": 14.3773027, "ECCENTRICITY": 0.0004631, "INCLINATION": 98.4771, "RA_OF_ASC_NODE": 71.6874, "ARG_OF_PERICENTER": 35.6989, "MEAN_ANOMALY": 324.4507, "EPHEMERIS_TYPE": 0, "CLASSIFICATION_TYPE": "U", "NORAD_CAT_ID": 35946, "ELEMENT_SET_NO": 999, "REV_AT_EPOCH": 85087, "BSTAR": 7.7502e-05, "MEAN_MOTION_DOT": 1.9e-06, "MEAN_MOTION_DDOT": 0}, "tle": {"line1": "1 35946U 09055A   25360.79605235  .00000190  00000+0  77502-4 0  9993", "line2": "2 35946  98.4771  71.6874 0004631  35.6989 324.4507 14.37730270850879"}}, "geometry": {"type": "Point", "coordinates": [-88.62330175040515, 65.7399747984156]}}, {"type": "Feature", "properties": {"norad_id": 36036, "name": "SMOS", "group": "resource", "lat": -71.0476582820931, "lon": -19.612090091186076, "alt_km": 767.319150050288, "timestamp": "2025-12-27T03:58:43.834867+00:00", "meta": {"OBJECT_NAME": "SMOS", "OBJECT_ID": "2009-059A", "EPOCH": "2025-12-26T11:47:46.851072", "MEAN_MOTION": 14.39753392, "ECCENTRICITY": 0.000104, "INCLINATION": 98.4382, "RA_OF_ASC_NODE": 185.3364, "ARG_OF_PERICENTER": 83.5124, "MEAN_ANOMALY": 276.6183, "EPHEMERIS_TYPE": 0, "CLASSIFICATION_TYPE": "U", "NORAD_CAT_ID": 36036, "ELEMENT_SET_NO": 999, "REV_AT_EPOCH": 84860, "BSTAR": 0.00014539, "MEAN_MOTION_DOT": 4.12e-06, "MEAN_MOTION_DDOT": 0}, "tle": {"line1": "1 36036U 09059A   25360.49151448  .00000412  00000+0  14539-3 0  9994", "line2": "2 36036  98.4382 185.3364 0001040  83.5124 276.6183 14.39753392848607"}}, "geometry": {"type": "Point", "coordinates": [-19.612090091186076, -71.0476582820931]}}, {"type": "Feature", "properties": {"norad_id": 36110, "name": "YAOGAN-7", "group": "resource", "lat": -66.66217697045455, "lon": 43.773677772089506, "alt_km": 627.7798741024335, "timestamp": "2025-12-27T03:58:43.834877+00:00", "meta": {"OBJECT_NAME": "YAOGAN-7", "OBJECT_ID": "2009-069A", "EPOCH": "2025-12-26T15:29:02.012352", "MEAN_MOTION": 14.77752551, "ECCENTRICITY": 0.0023522, "INCLINATION": 98.0293, "RA_OF_ASC_NODE": 242.3521, "ARG_OF_PERICENTER": 233.9323, "MEAN_ANOMALY": 125.9709, "EPHEMERIS_TYPE": 0, "CLASSIFICATION_TYPE": "U", "NORAD_CAT_ID": 36110, "ELEMENT_SET_NO": 999, "REV_AT_EPOCH": 86414, "BSTAR": 0.00010378, "MEAN_MOTION_DOT": 6.94e-06, "MEAN_MOTION_DDOT": 0}, "tle": {"line1": "1 36110U 09069A   25360.64516218  .00000694  00000+0  10378-3 0  9994", "line2": "2 36110  98.0293 242.3521 0023522 233.9323 125.9709 14.77752551864142"}}, "geometry": {"type": "Point", "coordinates": [43.773677772089506, -66.66217697045455]}}, {"type": "Feature", "properties": {"norad_id": 36605, "name": "TANDEM-X", "group": "resource", "lat": 58.80283759422214, "lon": -161.19287447223917, "alt_km": 501.6758097894517, "timestamp": "2025-12-27T03:58:43.834886+00:00", "meta": {"OBJECT_NAME": "TANDEM-X", "OBJECT_ID": "2010-030A", "EPOCH": "2025-12-26T13:13:25.252608", "MEAN_MOTION": 15.1915819, "ECCENTRICITY": 0.0001776, "INCLINATION": 97.4455, "RA_OF_ASC_NODE": 5.7293, "ARG_OF_PERICENTER": 92.0278, "MEAN_ANOMALY": 268.116, "EPHEMERIS_TYPE": 0, "CLASSIFICATION_TYPE": "U", "NORAD_CAT_ID": 36605, "ELEMENT_SET_NO": 999, "REV_AT_EPOCH": 86043, "BSTAR": 6.7415e-05, "MEAN_MOTION_DOT": 1.349e-05, "MEAN_MOTION_DDOT": 0}, "tle": {"line1": "1 36605U 10030A   25360.55098672  .00001349  00000+0  67415-4 0  9995", "line2": "2 36605  97.4455   5.7293 0001776  92.0278 268.1160 15.19158190860436"}}, "geometry": {"type": "Point", "coordinates": [-161.19287447223917, 58.80283759422214]}}, {"type": "Feature", "properties": {"norad_id": 36795, "name": "CARTOSAT-2B", "group": "resource", "lat": -45.97617368577119, "lon": -138.4101570169273, "alt_km": 648.6048274439454, "timestamp": "2025-12-27T03:58:43.834895+00:00", "meta": {"OBJECT_NAME": "CARTOSAT-2B", "OBJECT_ID": "2010-035A", "EPOCH": "2025-12-26T20:27:43.839072", "MEAN_MOTION": 14.78747042, "ECCENTRICITY": 0.0012485, "INCLINATION": 97.783, "RA_OF_ASC_NODE": 49.4224, "ARG_OF_PERICENTER": 34.7804, "MEAN_ANOMALY": 325.4221, "EPHEMERIS_TYPE": 0, "CLASSIFICATION_TYPE": "U", "NORAD_CAT_ID": 36795, "ELEMENT_SET_NO": 999, "REV_AT_EPOCH": 83438, "BSTAR": 0.00015234, "MEAN_MOTION_DOT": 1.07e-05, "MEAN_MOTION_DDOT": 0}, "tle": {"line1": "1 36795U 10035A   25360.85259073  .00001070  00000+0  15234-3 0  9999", "line2": "2 36795  97.7830  49.4224 0012485  34.7804 325.4221 14.78747042834386"}}, "geometry": {"type": "Point", "coordinates": [-138.4101570169273, -45.97617368577119]}}, {"type": "Feature", "properties": {"norad_id": 36834, "name": "YAOGAN-10", "group": "resource", "lat": -71.08478581126107, "lon": 176.92962475634224, "alt_km": 622.8761567835636, "timestamp": "2025-12-27T03:58:43.834905+00:00", "meta": {"OBJECT_NAME": "YAOGAN-10", "OBJECT_ID": "2010-038A", "EPOCH": "2025-12-26T20:55:42.254112", "MEAN_MOTION": 14.84658953, "ECCENTRICITY": 0.0001332, "INCLINATION": 97.9134, "RA_OF_ASC_NODE": 20.5861, "ARG_OF_PERICENTER": 79.05, "MEAN_ANOMALY": 44.5105, "EPHEMERIS_TYPE": 0, "CLASSIFICATION_TYPE": "U", "NORAD_CAT_ID": 36834, "ELEMENT_SET_NO": 999, "REV_AT_EPOCH": 83163, "BSTAR": 0.0001668, "MEAN_MOTION_DOT": 1.357e-05, "MEAN_MOTION_DDOT": 0}, "tle": {"line1": "1 36834U 10038A   25360.87201683  .00001357  00000+0  16680-3 0  9996", "line2": "2 36834  97.9134  20.5861 0001332  79.0500  44.5105 14.84658953831634"}}, "geometry": {"type": "Point", "coordinates": [176.92962475634224, -71.08478581126107]}}]}